{
    "links": {
        "self": "http://www.neowsapp.com/rest/v1/neo/3780785?api_key=iIulBulltgU6a56xZRHN4H3l9WmuAYTsLGpBGhQ2"
    },
    "id": "3780785",
    "neo_reference_id": "3780785",
    "name": "(2017 QB3)",
    "designation": "2017 QB3",
    "nasa_jpl_url": "http://ssd.jpl.nasa.gov/sbdb.cgi?sstr=3780785",
    "absolute_magnitude_h": 23.8,
    "estimated_diameter": {
        "kilometers": {
            "estimated_diameter_min": 0.046190746,
            "estimated_diameter_max": 0.1032856481
        },
        "meters": {
            "estimated_diameter_min": 46.1907460282,
            "estimated_diameter_max": 103.2856480504
        },
        "miles": {
            "estimated_diameter_min": 0.0287015901,
            "estimated_diameter_max": 0.0641787064
        },
        "feet": {
            "estimated_diameter_min": 151.544447199,
            "estimated_diameter_max": 338.8636855496
        }
    },
    "is_potentially_hazardous_asteroid": false,
    "close_approach_data": [
        {
            "close_approach_date": "2017-08-25",
            "close_approach_date_full": "2017-Aug-25 17:50",
            "epoch_date_close_approach": 1503683400000,
            "relative_velocity": {
                "kilometers_per_second": "8.8412298193",
                "kilometers_per_hour": "31828.4273495327",
                "miles_per_hour": "19776.9469828249"
            },
            "miss_distance": {
                "astronomical": "0.2135602225",
                "lunar": "83.0749265525",
                "kilometers": "31948154.402726075",
                "miles": "19851662.612026835"
            },
            "orbiting_body": "Earth"
        }
    ],
    "orbital_data": {
        "orbit_id": "2",
        "orbit_determination_date": "2017-08-27 06:17:59",
        "first_observation_date": "2017-08-18",
        "last_observation_date": "2017-08-25",
        "data_arc_in_days": 7,
        "observations_used": 11,
        "orbit_uncertainty": "8",
        "minimum_orbit_intersection": ".21344",
        "jupiter_tisserand_invariant": "4.410",
        "epoch_osculation": "2457984.5",
        "eccentricity": ".2015778670942909",
        "semi_major_axis": "1.533074046575887",
        "inclination": "17.23694527698405",
        "ascending_node_longitude": "332.9196333680625",
        "orbital_period": "693.334999912065",
        "perihelion_distance": "1.224040250169506",
        "perihelion_argument": "1.479045324430898",
        "aphelion_distance": "1.842107842982268",
        "perihelion_time": "2457993.178175704242",
        "mean_anomaly": "355.4940349846418",
        "mean_motion": ".5192295211487354",
        "equinox": "J2000",
        "orbit_class": {
            "orbit_class_type": "AMO",
            "orbit_class_description": "Near-Earth asteroid orbits similar to that of 1221 Amor",
            "orbit_class_range": "1.017 AU < q (perihelion) < 1.3 AU"
        }
    },
    "is_sentry_object": false
}